[
    {
        "Altitude(m)": 604234.6057806505,
        "Argument of Periapsis(deg)": 0.0,
        "Eccentricity": 0.0,
        "Inclination(deg)": 60.0,
        "Latitude(deg)": 14.117216095114296,
        "Longitude(deg)": 1.7273031799232403,
        "Mean Anomaly(deg)": -196.36359999999996,
        "RAAN(deg)": 290.0,
        "Satellite Name": "Test1 1286",
        "Satellite Number": 1286,
        "Semi-Major Axis(m)": 6980739.136638005,
        "Time(s)": 0
    },
    {
        "Altitude(m)": 604223.4345525099,
        "Argument of Periapsis(deg)": 0.00010418945913296404,
        "Eccentricity": 0.0,
        "Inclination(deg)": 60.0,
        "Latitude(deg)": 13.582352949476604,
        "Longitude(deg)": 2.014213283785592,
        "Mean Anomaly(deg)": -195.7434938545382,
        "RAAN(deg)": 289.99957995086027,
        "Satellite Name": "Test1 1286",
        "Satellite Number": 1286,
        "Semi-Major Axis(m)": 6980739.136638005,
        "Time(s)": 10
    }
]